LEMUR-1                 
1 40044U 14033AL  26189.91912601  .00001245  00000+0  14819-3 0  9995
2 40044  97.7901 339.2449 0048317   8.5943 351.6089 14.85324329648699
LEMUR-2-GREENBERG       
1 42837U 17042N   26190.23410264  .00012814  00000+0  41639-3 0  9999
2 42837  97.3832  10.7689 0007140 284.7697  75.2753 15.32026060491765
LEMUR-2-ANDIS           
1 42838U 17042P   26190.73271360  .00015725  00000+0  45347-3 0  9991
2 42838  97.3683  11.5304 0007099 281.4571  78.5875 15.35772741491916
LEMUR-2-MONSON          
1 42839U 17042Q   26190.74923672  .00009654  00000+0  34886-3 0  9993
2 42839  97.4092  11.2195 0005126 270.2225  89.8427 15.28660176491613
LEMUR-2-FURIAUS         
1 42840U 17042R   26190.76592409  .00012826  00000+0  43013-3 0  9994
2 42840  97.3780   9.2029 0006413 351.0660   9.0465 15.31011310491667
LEMUR-2-PETERG          
1 42841U 17042S   26189.94810303  .00015292  00000+0  45427-3 0  9990
2 42841  97.3999  15.0281 0002930 250.3592 109.7335 15.34864591491776
LEMUR-2-DEMBITZ         
1 42842U 17042T   26189.73984482  .00011664  00000+0  39206-3 0  9995
2 42842  97.3834  11.2222 0005126 303.4427  56.6324 15.30969559491645
LEMUR-2-ZACHARY         
1 42845U 17042W   26190.83151951  .00040627  00000+0  66596-3 0  9991
2 42845  97.3589  22.9819 0002380 275.3054  84.7927 15.52354875492711
LEMUR-2-AMANDA-SVANTE   
1 48269U 21034B   26190.19609264  .00025594  00000+0  73787-3 0  9993
2 48269  97.5750 269.0822 0004246 157.2695 202.8737 15.35697209284431
LEMUR-2-SPECIAL-K       
1 48273U 21034F   26189.78359953  .00202245  00000+0  14930-2 0  9992
2 48273  97.5632 278.3223 0005864 219.6394 140.4441 15.72370976285079
LEMUR-2-EMBRIONOVIS     
1 56970U 23084AQ  26190.32512284  .00010624  00000+0  28505-3 0  9994
2 56970  97.6309 335.3863 0007848 229.1156 130.9409 15.38125065171086
LEMUR-2-DEVERILL-M-T    
1 57391U 23100F   26188.69846859  .00016121  00000+0  39570-3 0  9998
2 57391  99.4460 233.3957 0004797 329.3522  30.7437 15.40821036164403
LEMUR-2-BASS            
1 58259U 23174D   26190.83637500  .00013575  00000+0  30063-3 0  9991
2 58259  97.3844 275.8760 0007911  94.1413 266.0739 15.43870414148857
LEMUR-2-JK0903EM1407    
1 58336U 23174CJ  26190.64194431  .00019554  00000+0  31633-3 0  9994
2 58336  97.3917 281.7629 0004082  51.7216 308.4404 15.52862811149213
LEMUR-2-MJR092620       
1 58340U 23174CN  26190.04617205  .00014182  00000+0  29527-3 0  9993
2 58340  97.3971 280.4893 0005891  50.7251 309.4519 15.45702331149023
LEMUR-2-NIMBUS2000      
1 58899U 24022A   26189.64523353  .00016384  00000+0  39955-3 0  9991
2 58899  97.4096  39.9264 0009407  49.8701 310.3369 15.40918823135575
